[{"OBJECT_NAME":"GLOBALSTAR M045 [-]","OBJECT_ID":"1999-019A","EPOCH":"2022-08-18T21:17:53.348064","MEAN_MOTION":12.26998485,"ECCENTRICITY":4.14e-5,"INCLINATION":51.9999,"RA_OF_ASC_NODE":10.2026,"ARG_OF_PERICENTER":34.105,"MEAN_ANOMALY":106.1131,"EPHEMERIS_TYPE":0,"CLASSIFICATION_TYPE":"U","NORAD_CAT_ID":25676,"ELEMENT_SET_NO":999,"REV_AT_EPOCH":6654,"BSTAR":0.00027673,"MEAN_MOTION_DOT":-6.2e-7,"MEAN_MOTION_DDOT":0},{"OBJECT_NAME":"GLOBALSTAR M019 [-]","OBJECT_ID":"1999-019B","EPOCH":"2022-08-18T07:02:32.912736","MEAN_MOTION":12.13832933,"ECCENTRICITY":0.0001775,"INCLINATION":51.9887,"RA_OF_ASC_NODE":69.5687,"ARG_OF_PERICENTER":45.8107,"MEAN_ANOMALY":125.3488,"EPHEMERIS_TYPE":0,"CLASSIFICATION_TYPE":"U","NORAD_CAT_ID":25677,"ELEMENT_SET_NO":999,"REV_AT_EPOCH":5977,"BSTAR":0.00037396,"MEAN_MOTION_DOT":-5.4e-7,"MEAN_MOTION_DDOT":0},{"OBJECT_NAME":"GLOBALSTAR M044 [-]","OBJECT_ID":"1999-019C","EPOCH":"2022-08-18T11:56:32.030880","MEAN_MOTION":11.90210037,"ECCENTRICITY":0.000636,"INCLINATION":51.9941,"RA_OF_ASC_NODE":251.0562,"ARG_OF_PERICENTER":206.2322,"MEAN_ANOMALY":306.911,"EPHEMERIS_TYPE":0,"CLASSIFICATION_TYPE":"U","NORAD_CAT_ID":25678,"ELEMENT_SET_NO":999,"REV_AT_EPOCH":4823,"BSTAR":0.00015369,"MEAN_MOTION_DOT":-7.3e-7,"MEAN_MOTION_DDOT":0},{"OBJECT_NAME":"GLOBALSTAR M042 [-]","OBJECT_ID":"1999-019D","EPOCH":"2022-08-18T12:54:11.741760","MEAN_MOTION":12.22030742,"ECCENTRICITY":0.0003005,"INCLINATION":52.0016,"RA_OF_ASC_NODE":88.8213,"ARG_OF_PERICENTER":353.854,"MEAN_ANOMALY":16.6549,"EPHEMERIS_TYPE":0,"CLASSIFICATION_TYPE":"U","NORAD_CAT_ID":25679,"ELEMENT_SET_NO":999,"REV_AT_EPOCH":5888,"BSTAR":-0.00016955,"MEAN_MOTION_DOT":-1.1e-6,"MEAN_MOTION_DDOT":0},{"OBJECT_NAME":"GLOBALSTAR M025 [-]","OBJECT_ID":"1999-031A","EPOCH":"2022-08-18T17:42:43.545600","MEAN_MOTION":11.22540286,"ECCENTRICITY":0.000122,"INCLINATION":51.9842,"RA_OF_ASC_NODE":33.288,"ARG_OF_PERICENTER":168.1274,"MEAN_ANOMALY":205.8789,"EPHEMERIS_TYPE":0,"CLASSIFICATION_TYPE":"U","NORAD_CAT_ID":25770,"ELEMENT_SET_NO":999,"REV_AT_EPOCH":36565,"BSTAR":0.00010251,"MEAN_MOTION_DOT":-6.4e-7,"MEAN_MOTION_DDOT":0},{"OBJECT_NAME":"GLOBALSTAR M049 [-]","OBJECT_ID":"1999-031B","EPOCH":"2022-08-19T03:30:47.515392","MEAN_MOTION":11.1209203,"ECCENTRICITY":0.0003323,"INCLINATION":51.9909,"RA_OF_ASC_NODE":15.1832,"ARG_OF_PERICENTER":92.8446,"MEAN_ANOMALY":267.2731,"EPHEMERIS_TYPE":0,"CLASSIFICATION_TYPE":"U","NORAD_CAT_ID":25771,"ELEMENT_SET_NO":999,"REV_AT_EPOCH":249,"BSTAR":-0.0020962,"MEAN_MOTION_DOT":-1.26e-6,"MEAN_MOTION_DDOT":0},{"OBJECT_NAME":"GLOBALSTAR M047 [-]","OBJECT_ID":"1999-031C","EPOCH":"2022-08-18T14:06:11.733120","MEAN_MOTION":11.31908268,"ECCENTRICITY":0.0016064,"INCLINATION":51.9831,"RA_OF_ASC_NODE":112.1681,"ARG_OF_PERICENTER":290.7562,"MEAN_ANOMALY":69.1522,"EPHEMERIS_TYPE":0,"CLASSIFICATION_TYPE":"U","NORAD_CAT_ID":25772,"ELEMENT_SET_NO":999,"REV_AT_EPOCH":35406,"BSTAR":0.00019554,"MEAN_MOTION_DOT":-6.2e-7,"MEAN_MOTION_DDOT":0},{"OBJECT_NAME":"GLOBALSTAR M052 [-]","OBJECT_ID":"1999-031D","EPOCH":"2022-08-18T06:46:31.329120","MEAN_MOTION":11.15040629,"ECCENTRICITY":0.0002239,"INCLINATION":51.9859,"RA_OF_ASC_NODE":140.3569,"ARG_OF_PERICENTER":273.2586,"MEAN_ANOMALY":235.0635,"EPHEMERIS_TYPE":0,"CLASSIFICATION_TYPE":"U","NORAD_CAT_ID":25773,"ELEMENT_SET_NO":999,"REV_AT_EPOCH":36317,"BSTAR":-0.00059152,"MEAN_MOTION_DOT":-8.3e-7,"MEAN_MOTION_DDOT":0},{"OBJECT_NAME":"GLOBALSTAR M035 [-]","OBJECT_ID":"1999-037A","EPOCH":"2022-08-18T08:53:29.631840","MEAN_MOTION":11.04520785,"ECCENTRICITY":0.0013281,"INCLINATION":51.9913,"RA_OF_ASC_NODE":200.4237,"ARG_OF_PERICENTER":105.5986,"MEAN_ANOMALY":50.6952,"EPHEMERIS_TYPE":0,"CLASSIFICATION_TYPE":"U","NORAD_CAT_ID":25851,"ELEMENT_SET_NO":999,"REV_AT_EPOCH":98201,"BSTAR":0.00010023,"MEAN_MOTION_DOT":-6.1e-7,"MEAN_MOTION_DDOT":0},{"OBJECT_NAME":"GLOBALSTAR M032 [-]","OBJECT_ID":"1999-037B","EPOCH":"2022-08-18T13:59:13.827552","MEAN_MOTION":11.19045812,"ECCENTRICITY":0.0005285,"INCLINATION":51.9951,"RA_OF_ASC_NODE":96.4669,"ARG_OF_PERICENTER":219.0685,"MEAN_ANOMALY":140.9734,"EPHEMERIS_TYPE":0,"CLASSIFICATION_TYPE":"U","NORAD_CAT_ID":25852,"ELEMENT_SET_NO":999,"REV_AT_EPOCH":1907,"BSTAR":-0.00016546,"MEAN_MOTION_DOT":-7.2e-7,"MEAN_MOTION_DDOT":0},{"OBJECT_NAME":"GLOBALSTAR M051 [-]","OBJECT_ID":"1999-037C","EPOCH":"2022-08-18T16:41:12.992064","MEAN_MOTION":11.42180383,"ECCENTRICITY":0.0001226,"INCLINATION":51.9829,"RA_OF_ASC_NODE":14.0104,"ARG_OF_PERICENTER":138.9602,"MEAN_ANOMALY":221.1301,"EPHEMERIS_TYPE":0,"CLASSIFICATION_TYPE":"U","NORAD_CAT_ID":25853,"ELEMENT_SET_NO":999,"REV_AT_EPOCH":1429,"BSTAR":-0.00057007,"MEAN_MOTION_DOT":-9.5e-7,"MEAN_MOTION_DDOT":0},{"OBJECT_NAME":"GLOBALSTAR M030 [-]","OBJECT_ID":"1999-037D","EPOCH":"2022-08-18T18:14:34.789632","MEAN_MOTION":11.55078833,"ECCENTRICITY":0.0003922,"INCLINATION":51.9843,"RA_OF_ASC_NODE":245.6567,"ARG_OF_PERICENTER":340.704,"MEAN_ANOMALY":19.3628,"EPHEMERIS_TYPE":0,"CLASSIFICATION_TYPE":"U","NORAD_CAT_ID":25854,"ELEMENT_SET_NO":999,"REV_AT_EPOCH":3062,"BSTAR":0.00026754,"MEAN_MOTION_DOT":-6.2e-7,"MEAN_MOTION_DDOT":0},{"OBJECT_NAME":"GLOBALSTAR M048 [-]","OBJECT_ID":"1999-041A","EPOCH":"2022-08-18T13:45:28.023264","MEAN_MOTION":11.33832163,"ECCENTRICITY":0.0013478,"INCLINATION":51.9349,"RA_OF_ASC_NODE":269.3666,"ARG_OF_PERICENTER":195.3968,"MEAN_ANOMALY":323.7311,"EPHEMERIS_TYPE":0,"CLASSIFICATION_TYPE":"U","NORAD_CAT_ID":25872,"ELEMENT_SET_NO":999,"REV_AT_EPOCH":762,"BSTAR":0.00014528,"MEAN_MOTION_DOT":-6.5e-7,"MEAN_MOTION_DDOT":0},{"OBJECT_NAME":"GLOBALSTAR M026 [-]","OBJECT_ID":"1999-041B","EPOCH":"2022-08-18T15:26:40.057152","MEAN_MOTION":11.06805332,"ECCENTRICITY":0.0001043,"INCLINATION":52.004,"RA_OF_ASC_NODE":328.6683,"ARG_OF_PERICENTER":359.3838,"MEAN_ANOMALY":140.7901,"EPHEMERIS_TYPE":0,"CLASSIFICATION_TYPE":"U","NORAD_CAT_ID":25873,"ELEMENT_SET_NO":999,"REV_AT_EPOCH":3404,"BSTAR":0.002185,"MEAN_MOTION_DOT":-5.0e-8,"MEAN_MOTION_DDOT":0},{"OBJECT_NAME":"GLOBALSTAR M043 [-]","OBJECT_ID":"1999-041C","EPOCH":"2022-08-18T16:18:49.849632","MEAN_MOTION":11.25672796,"ECCENTRICITY":0.0013075,"INCLINATION":51.9434,"RA_OF_ASC_NODE":335.5781,"ARG_OF_PERICENTER":350.6389,"MEAN_ANOMALY":157.7959,"EPHEMERIS_TYPE":0,"CLASSIFICATION_TYPE":"U","NORAD_CAT_ID":25874,"ELEMENT_SET_NO":999,"REV_AT_EPOCH":648,"BSTAR":0.00073206,"MEAN_MOTION_DOT":-4.4e-7,"MEAN_MOTION_DDOT":0},{"OBJECT_NAME":"GLOBALSTAR M028 [-]","OBJECT_ID":"1999-041D","EPOCH":"2022-08-18T16:56:53.654784","MEAN_MOTION":12.50521867,"ECCENTRICITY":0.0063462,"INCLINATION":51.9643,"RA_OF_ASC_NODE":34.5388,"ARG_OF_PERICENTER":348.2027,"MEAN_ANOMALY":11.7345,"EPHEMERIS_TYPE":0,"CLASSIFICATION_TYPE":"U","NORAD_CAT_ID":25875,"ELEMENT_SET_NO":999,"REV_AT_EPOCH":6087,"BSTAR":-7.689e-5,"MEAN_MOTION_DOT":-1.12e-6,"MEAN_MOTION_DDOT":0}]