GLOBALSTAR M045 [-]     
1 25676U 99019A   22230.88742301 -.00000062  00000+0  27673-3 0  9992
2 25676  51.9999  10.2026 0000414  34.1050 106.1131 12.26998485 66541
GLOBALSTAR M019 [-]     
1 25677U 99019B   22230.29343649 -.00000054  00000+0  37396-3 0  9994
2 25677  51.9887  69.5687 0001775  45.8107 125.3488 12.13832933 59777
GLOBALSTAR M044 [-]     
1 25678U 99019C   22230.49759295 -.00000073  00000+0  15369-3 0  9992
2 25678  51.9941 251.0562 0006360 206.2322 306.9110 11.90210037 48233
GLOBALSTAR M042 [-]     
1 25679U 99019D   22230.53763590 -.00000110  00000+0 -16955-3 0  9996
2 25679  52.0016  88.8213 0003005 353.8540  16.6549 12.22030742 58884
GLOBALSTAR M025 [-]     
1 25770U 99031A   22230.73800400 -.00000064  00000+0  10251-3 0  9996
2 25770  51.9842  33.2880 0001220 168.1274 205.8789 11.22540286365655
GLOBALSTAR M049 [-]     
1 25771U 99031B   22231.14638328 -.00000126  00000+0 -20962-2 0  9990
2 25771  51.9909  15.1832 0003323  92.8446 267.2731 11.12092030  2493
GLOBALSTAR M047 [-]     
1 25772U 99031C   22230.58763580 -.00000062  00000+0  19554-3 0  9991
2 25772  51.9831 112.1681 0016064 290.7562  69.1522 11.31908268354062
GLOBALSTAR M052 [-]     
1 25773U 99031D   22230.28230705 -.00000083  00000+0 -59152-3 0  9999
2 25773  51.9859 140.3569 0002239 273.2586 235.0635 11.15040629363173
GLOBALSTAR M035 [-]     
1 25851U 99037A   22230.37048185 -.00000061  00000+0  10023-3 0  9990
2 25851  51.9913 200.4237 0013281 105.5986  50.6952 11.04520785982018
GLOBALSTAR M032 [-]     
1 25852U 99037B   22230.58279893 -.00000072  00000+0 -16546-3 0  9995
2 25852  51.9951  96.4669 0005285 219.0685 140.9734 11.19045812 19072
GLOBALSTAR M051 [-]     
1 25853U 99037C   22230.69528926 -.00000095  00000+0 -57007-3 0  9994
2 25853  51.9829  14.0104 0001226 138.9602 221.1301 11.42180383 14296
GLOBALSTAR M030 [-]     
1 25854U 99037D   22230.76012488 -.00000062  00000+0  26754-3 0  9992
2 25854  51.9843 245.6567 0003922 340.7040  19.3628 11.55078833 30626
GLOBALSTAR M048 [-]     
1 25872U 99041A   22230.57324101 -.00000065  00000+0  14528-3 0  9993
2 25872  51.9349 269.3666 0013478 195.3968 323.7311 11.33832163  7625
GLOBALSTAR M026 [-]     
1 25873U 99041B   22230.64351918 -.00000005  00000+0  21850-2 0  9997
2 25873  52.0040 328.6683 0001043 359.3838 140.7901 11.06805332 34043
GLOBALSTAR M043 [-]     
1 25874U 99041C   22230.67974363 -.00000044  00000+0  73206-3 0  9992
2 25874  51.9434 335.5781 0013075 350.6389 157.7959 11.25672796  6483
GLOBALSTAR M028 [-]     
1 25875U 99041D   22230.70617656 -.00000112  00000+0 -76890-4 0  9996
2 25875  51.9643  34.5388 0063462 348.2027  11.7345 12.50521867 60874
